GLOBALSTAR M075 [+]     
1 37192U 10054E   24029.85482111 -.00000078  00000+0  14575-3 0  9999
2 37192  51.9945 277.1241 0000682  69.0746  54.2128 12.62270203612319
GLOBALSTAR M073 [+]     
1 37193U 10054F   24029.61675951 -.00000114  00000+0 -59138-4 0  9997
2 37193  52.0037 191.2754 0000987  91.1028  32.1237 12.62271969614112
GLOBALSTAR M083 [+]     
1 37739U 11033A   24029.46132823 -.00000081  00000+0  12902-3 0  9999
2 37739  51.9856 141.1706 0000900 121.5599 314.6905 12.62265531583115
GLOBALSTAR M088 [+]     
1 37740U 11033B   24029.36148877 -.00000090  00000+0  75896-4 0  9998
2 37740  51.9745  47.3902 0000362 159.1433 303.8007 12.62264411578646
GLOBALSTAR M091 [+]     
1 37741U 11033C   24029.92538951 -.00000093  00000+0  60604-4 0  9991
2 37741  52.0022   8.3270 0000156 156.4344 289.6019 12.62270588579506
GLOBALSTAR M085 [+]     
1 37742U 11033D   24029.21319407 -.00000067  00000+0  20413-3 0  9991
2 37742  51.9890 321.9833 0000299  77.9568  69.8187 12.62267025579922
GLOBALSTAR M081 [+]     
1 37743U 11033E   24029.76458302 -.00000076  00000+0  15454-3 0  9999
2 37743  51.9984 322.7789 0000238  31.1654 343.7844 12.62268848580141
GLOBALSTAR M089 [+]     
1 37744U 11033F   24029.90868376 -.00000079  00000+0  13728-3 0  9997
2 37744  51.9934 276.6616 0000903  46.2044  84.6469 12.62253851581000
